0 COSMOS 1275 DEB
1 27735U 81053MW  13282.23176666  .00000883  00000-0  89920-3 0  1312
2 27735 083.0543 014.4818 0101546 294.7321 092.7577 13.73555735986622
0 COSMOS 1275 DEB
1 27735U 81053MW  13286.70117867  .00001112  00000-0  11362-2 0  1327
2 27735 083.0545 011.2298 0101813 282.1126 233.3366 13.73565190987235
0 COSMOS 1275 DEB
1 27735U 81053MW  13289.52260567  .00001098  00000-0  11209-2 0  1330
2 27735 083.0541 009.1771 0102030 274.1676 144.9177 13.73571825987617
0 COSMOS 1275 DEB
1 27735U 81053MW  13292.95912187  .00001351  00000-0  13820-2 0  1347
2 27735 083.0536 006.6767 0102229 264.5128 218.1271 13.73581500988096
0 COSMOS 1275 DEB
1 27735U 81053MW  13295.49595029  .00001327  00000-0  13568-2 0  1354
2 27735 083.0536 004.8303 0102416 257.4061 162.5257 13.73588588988445
